[{"OBJECT_NAME":"OBJECT AL","OBJECT_ID":"2023-085AL","EPOCH":"2026-03-09T22:26:04.970400","MEAN_MOTION":15.31857284,"ECCENTRICITY":0.000802,"INCLINATION":97.4839,"RA_OF_ASC_NODE":180.0127,"ARG_OF_PERICENTER":78.7242,"MEAN_ANOMALY":281.49,"EPHEMERIS_TYPE":0,"CLASSIFICATION_TYPE":"U","NORAD_CAT_ID":57038,"ELEMENT_SET_NO":999,"REV_AT_EPOCH":15154,"BSTAR":0.0006591637,"MEAN_MOTION_DOT":0.00020246,"MEAN_MOTION_DDOT":0},{"OBJECT_NAME":"STARLINK-30985","OBJECT_ID":"2023-186W","EPOCH":"2026-03-09T22:00:30.929760","MEAN_MOTION":15.2719302,"ECCENTRICITY":0.00016879,"INCLINATION":43.0045,"RA_OF_ASC_NODE":62.1336,"ARG_OF_PERICENTER":278.031,"MEAN_ANOMALY":82.035,"EPHEMERIS_TYPE":0,"CLASSIFICATION_TYPE":"U","NORAD_CAT_ID":58493,"ELEMENT_SET_NO":999,"REV_AT_EPOCH":12592,"BSTAR":0.0033302819,"MEAN_MOTION_DOT":0.00091437,"MEAN_MOTION_DDOT":0}]
